[{"OBJECT_NAME":"STARLINK-30711","OBJECT_ID":"2023-148F","EPOCH":"2026-03-09T04:47:33.837216","MEAN_MOTION":15.30189821,"ECCENTRICITY":0.00012697,"INCLINATION":53.1624,"RA_OF_ASC_NODE":26.7448,"ARG_OF_PERICENTER":108.4163,"MEAN_ANOMALY":251.6976,"EPHEMERIS_TYPE":0,"CLASSIFICATION_TYPE":"U","NORAD_CAT_ID":57940,"ELEMENT_SET_NO":999,"REV_AT_EPOCH":13834,"BSTAR":-5.0051e-7,"MEAN_MOTION_DOT":-3.74e-6,"MEAN_MOTION_DDOT":0},{"OBJECT_NAME":"PUCP-SAT 1","OBJECT_ID":"2013-066AC","EPOCH":"2026-03-09T22:02:13.763904","MEAN_MOTION":15.29426022,"ECCENTRICITY":0.00136836,"INCLINATION":97.5787,"RA_OF_ASC_NODE":61.0032,"ARG_OF_PERICENTER":300.1183,"MEAN_ANOMALY":59.87,"EPHEMERIS_TYPE":0,"CLASSIFICATION_TYPE":"U","NORAD_CAT_ID":39442,"ELEMENT_SET_NO":999,"REV_AT_EPOCH":66907,"BSTAR":0.00088755185,"MEAN_MOTION_DOT":0.00025373,"MEAN_MOTION_DDOT":0}]
